OBJECT_NAME,OBJECT_ID,EPOCH,MEAN_MOTION,ECCENTRICITY,INCLINATION,RA_OF_ASC_NODE,ARG_OF_PERICENTER,MEAN_ANOMALY,EPHEMERIS_TYPE,CLASSIFICATION_TYPE,NORAD_CAT_ID,ELEMENT_SET_NO,REV_AT_EPOCH,BSTAR,MEAN_MOTION_DOT,MEAN_MOTION_DDOT
STARLINK-37987,2026-150L,2026-07-20T02:29:35.391840,15.75188674,.00013391,97.2839,39.7029,85.7618,274.3800,0,U,69749,999,409,.11194742E-2,.170206E-2,0
STARLINK-38037,2026-150M,2026-07-19T01:26:59.435232,15.80816640,.00019856,97.2848,38.6752,76.0288,284.1201,0,U,69750,999,393,.10371471E-2,.203229E-2,0
STARLINK-38049,2026-150N,2026-07-20T01:43:58.485216,15.80808609,.00005207,97.2840,39.7474,93.9650,266.1678,0,U,69751,999,409,.86673285E-3,.169077E-2,0
STARLINK-38029,2026-150P,2026-07-20T02:05:42.522144,15.75187814,.00018394,97.2845,39.7268,77.4578,282.6893,0,U,69752,999,409,.9198911E-3,.139328E-2,0
STARLINK-37965,2026-150Q,2026-07-20T02:15:21.703680,15.75191592,.00013374,97.2846,39.7166,83.9207,276.2211,0,U,69753,999,409,.10016988E-2,.151978E-2,0
STARLINK-38048,2026-150R,2026-07-20T04:37:28.519680,15.80860525,.00018952,97.2837,39.8907,84.7652,275.3832,0,U,69754,999,411,.89136844E-3,.174412E-2,0
STARLINK-38006,2026-150S,2026-07-20T06:36:34.955712,15.75226895,.00000141,97.2867,39.9305,282.3461,77.7803,0,U,69755,999,412,.69234294E-3,.104577E-2,0
STARLINK-38036,2026-150T,2026-07-20T01:52:31.044576,15.75169439,.00015631,97.2844,39.7405,76.2470,283.8969,0,U,69756,999,409,.93255362E-3,.141164E-2,0
STARLINK-38058,2026-150U,2026-07-20T06:00:04.000320,15.75246791,.00015358,97.2847,39.9472,100.0819,212.3212,0,U,69757,999,411,-.11921599E-2,-.174797E-2,0
STARLINK-38066,2026-150V,2026-07-20T06:00:04.000320,15.75039125,.00016866,97.2844,39.9581,109.6567,226.7541,0,U,69758,999,411,.81800228E-3,.122848E-2,0
STARLINK-38035,2026-150W,2026-07-20T00:00:02.000160,15.80812496,.00013454,97.2842,39.6988,90.8778,279.8278,0,U,69759,999,407,.53164019E-4,.10052E-3,0
STARLINK-38056,2026-150X,2026-07-19T23:52:22.858464,15.80874613,.00013335,97.2834,39.7014,69.6797,290.4615,0,U,69760,999,408,.14776004E-2,.293402E-2,0
STARLINK-38069,2026-150Y,2026-07-20T06:00:04.000320,15.75222246,.0000986,97.2853,39.9624,88.2560,260.1492,0,U,69761,999,411,-.88656424E-3,-.130544E-2,0
STARLINK-38019,2026-150Z,2026-07-20T06:35:34.413504,15.75210681,.0000946,97.2845,39.9313,81.6622,278.4751,0,U,69762,999,412,.8347005E-3,.12634E-2,0
KUIPER-00258,2026-151A,2026-07-20T06:00:04.000320,15.34693618,.00108804,51.8684,156.2040,186.7524,5.4954,0,U,69763,999,315,.10915891E-2,.37131E-3,0
KUIPER-00526,2026-151B,2026-07-20T06:10:45.811488,15.37391157,.00059042,51.8772,155.9170,156.2830,203.8430,0,U,69764,999,279,.21894268E-3,.7769E-4,0
KUIPER-00558,2026-151C,2026-07-20T06:00:04.000320,15.30606102,.00056703,51.8802,156.1181,166.6908,69.4046,0,U,69765,999,339,-.44173547E-1,-.1220544E-1,0
KUIPER-00569,2026-151D,2026-07-19T00:00:00.999648,15.37536026,.00051062,51.8800,161.9756,149.5744,96.8948,0,U,69766,999,169,-.28959487E-3,-.11214E-3,0
KUIPER-00589,2026-151E,2026-07-20T06:10:07.962240,15.36279970,.00031958,51.8760,155.9140,140.5115,219.6104,0,U,69767,999,279,-.10857927E-1,-.371906E-2,0
KUIPER-00598,2026-151F,2026-07-20T06:00:04.000320,15.34310036,.00083175,51.8648,156.2076,178.0238,10.2557,0,U,69768,999,333,.11556361E-2,.38831E-3,0
KUIPER-00604,2026-151G,2026-07-20T05:55:17.229216,15.38315790,.00027165,51.8802,155.8461,120.8147,239.3108,0,U,69769,999,279,.25018299E-3,.9215E-4,0
KUIPER-00609,2026-151H,2026-07-20T05:48:22.220640,15.38707862,.00012729,51.8804,155.8143,63.9706,296.1412,0,U,69770,999,279,.22253151E-3,.826E-4,0
KUIPER-00611,2026-151J,2026-07-20T05:51:42.989184,15.38523167,.00016031,51.8808,155.8257,115.2250,244.8904,0,U,69771,999,279,.21234832E-3,.7814E-4,0
KUIPER-00612,2026-151K,2026-07-20T06:00:17.029440,15.38023691,.00036576,51.8793,155.8697,133.9585,226.1704,0,U,69772,999,279,.35809696E-3,.13239E-3,0
KUIPER-00614,2026-151L,2026-07-20T05:56:45.223296,15.38227164,.0002617,51.8802,155.8512,136.9156,223.2037,0,U,69773,999,279,.31241197E-3,.11574E-3,0
KUIPER-00615,2026-151M,2026-07-20T06:12:17.220960,15.37300031,.00060209,51.8782,155.9235,164.4270,195.6903,0,U,69774,999,279,.23917499E-3,.8499E-4,0
KUIPER-00616,2026-151N,2026-07-20T05:53:48.190560,15.38413204,.0002693,51.8790,155.8412,130.5594,229.5628,0,U,69775,999,279,.57487854E-3,.21794E-3,0
KUIPER-00617,2026-151P,2026-07-20T06:02:35.443104,15.37864574,.00038576,51.8803,155.8794,153.1279,206.9908,0,U,69776,999,279,.31468982E-3,.11522E-3,0
KUIPER-00619,2026-151Q,2026-07-20T05:50:00.158496,15.38618287,.00016992,51.8806,155.8230,83.2699,276.8482,0,U,69777,999,279,.35869048E-3,.13526E-3,0
KUIPER-00621,2026-151R,2026-07-20T02:46:37.558272,15.39219047,.00070888,51.8809,156.4708,216.8278,143.2223,0,U,69778,999,277,.17767862E-1,.754204E-2,0
